{
"type": "FeatureCollection",
"name": "NT-Polygon-2026",
"crs": { "type": "name", "properties": { "name": "urn:ogc:def:crs:OGC:1.3:CRS84" } },
"features": [
{ "type": "Feature", "properties": { "type": "Boundary", "id": 1 }, "geometry": { "type": "Polygon", "coordinates": [ [ [ -4.0829248189095, 51.175184387459709 ], [ -4.0829248189095, 51.252833087414061 ], [ -3.697770640312706, 51.252833087414061 ], [ -3.697770640312706, 51.175184387459709 ], [ -4.0829248189095, 51.175184387459709 ] ] ] } }
]
}
